NORAD_CAT_ID,OBJECT_NAME,OBJECT_TYPE,EPOCH,MEAN_MOTION,ECCENTRICITY,INCLINATION,RA_OF_ASC_NODE,ARG_OF_PERICENTER,MEAN_ANOMALY,BSTAR,MEAN_MOTION_DOT,MEAN_MOTION_DDOT,TLE_LINE0,TLE_LINE1,TLE_LINE2,SEMIMAJOR_AXIS,PERIOD,APOGEE,PERIGEE,DECAYED
55756.0,STARLINK-5614,PAYLOAD,2023-04-30 16:00:00,15.08806083,0.0003024,70.0027,356.742,266.7267,222.2906,-0.065617,-0.00953726,0.0,0 STARLINK-5614,1 55756U 23028R   23120.66667824 -.00953726  00000-0 -65617-1 0  9996,2 55756  70.0027 356.7420 0003024 266.7267 222.2906 15.08806083  9650,6917.984,95.44,541.941,537.757,0.0
55756.0,STARLINK-5614,PAYLOAD,2023-05-01 14:00:01,15.06992286,0.000313,70.0024,354.3963,266.7159,156.8745,-0.066284,-0.00919545,0.0,0 STARLINK-5614,1 55756U 23028R   23121.58334491 -.00919545  00000-0 -66284-1 0  9991,2 55756  70.0024 354.3963 0003130 266.7159 156.8745 15.06992286  9798,6923.534,95.555,547.566,543.232,0.0
55756.0,STARLINK-5614,PAYLOAD,2023-05-01 22:00:00,15.06311567,0.0003099,70.0025,353.5451,273.8286,157.2445,-0.065096,-0.00888867,0.0,0 STARLINK-5614,1 55756U 23028R   23121.91667824 -.00888867  00000-0 -65096-1 0  9999,2 55756  70.0025 353.5451 0003099 273.8286 157.2445 15.06311567  1304,6925.62,95.598,549.631,545.338,0.0
55756.0,STARLINK-5614,PAYLOAD,2023-05-02 14:00:01,15.05038839,0.0003081,70.0023,351.8449,269.0751,174.6319,-0.070307,-0.00924716,0.0,0 STARLINK-5614,1 55756U 23028R   23122.58335648 -.00924716  00000-0 -70307-1 0  9994,2 55756  70.0023 351.8449 0003081 269.0751 174.6319 15.05038839  9943,6929.523,95.679,553.523,549.253,0.0
55756.0,STARLINK-5614,PAYLOAD,2023-05-02 22:00:00,15.04354723,0.0003026,70.0023,350.9962,274.5971,174.1831,-0.068636,-0.00889022,0.0,0 STARLINK-5614,1 55756U 23028R   23122.91667824 -.00889022  00000-0 -68636-1 0  9997,2 55756  70.0023 350.9962 0003026 274.5971 174.1831 15.04354723  1305,6931.624,95.722,555.587,551.392,0.0
55756.0,STARLINK-5614,PAYLOAD,2023-05-03 14:00:01,15.03086656,0.0003025,70.0021,349.3011,268.7003,187.9561,-0.07476,-0.00932538,0.0,0 STARLINK-5614,1 55756U 23028R   23123.58334491 -.00932538  00000-0 -74760-1 0  9998,2 55756  70.0021 349.3011 0003025 268.7003 187.9561 15.03086656 10094,6935.522,95.803,559.485,555.289,0.0
55756.0,STARLINK-5614,PAYLOAD,2023-05-03 22:00:00,15.02395117,0.0002974,70.002,348.455,274.8511,184.5961,-0.071785,-0.00882891,0.0,0 STARLINK-5614,1 55756U 23028R   23123.91667824 -.00882891  00000-0 -71785-1 0  9994,2 55756  70.0020 348.4550 0002974 274.8511 184.5961 15.02395117  1300,6937.65,95.847,561.578,557.452,0.0
55756.0,STARLINK-5614,PAYLOAD,2023-05-04 14:00:01,15.01133925,0.0003002,70.0019,346.7649,268.6855,194.0051,-0.079384,-0.00950466,0.0,0 STARLINK-5614,1 55756U 23028R   23124.58335648 -.00950466  00000-0 -79384-1 0  9991,2 55756  70.0019 346.7649 0003002 268.6855 194.0051 15.01133925 10248,6941.535,95.927,565.484,561.317,0.0
55756.0,STARLINK-5614,PAYLOAD,2023-05-04 22:00:01,15.00436968,0.000296,70.0017,345.9214,275.2481,187.8873,-0.075275,-0.00879393,0.0,0 STARLINK-5614,1 55756U 23028R   23124.91668981 -.00879393  00000-0 -75275-1 0  9991,2 55756  70.0017 345.9214 0002960 275.2481 187.8873 15.00436968  1307,6943.685,95.972,567.605,563.495,0.0
55756.0,STARLINK-5614,PAYLOAD,2023-05-05 16:00:01,14.99327067,0.0002936,70.0017,344.0259,268.5792,282.7255,-0.0030621,-0.00037388,0.0,0 STARLINK-5614,1 55756U 23028R   23125.66668981 -.00037388  00000-0 -30621-2 0  9991,2 55756  70.0017 344.0259 0002936 268.5792 282.7255 14.99327067 10405,6947.111,96.043,571.016,566.937,0.0
55756.0,STARLINK-5614,PAYLOAD,2023-05-05 22:00:00,14.99289151,0.0002949,70.0014,343.3947,275.7296,184.5231,0.00016888,1.973e-05,0.0,0 STARLINK-5614,1 55756U 23028R   23125.91667824  .00001973  00000-0  16888-3 0  9993,2 55756  70.0014 343.3947 0002949 275.7296 184.5231 14.99289151  1304,6947.228,96.046,571.142,567.045,0.0
55756.0,STARLINK-5614,PAYLOAD,2023-05-06 16:00:00,14.99326163,0.000293,70.0014,341.5008,271.3776,275.8013,-0.0019589,-0.00023997,0.0,0 STARLINK-5614,1 55756U 23028R   23126.66667824 -.00023997  00000-0 -19589-2 0  9998,2 55756  70.0014 341.5008 0002930 271.3776 275.8013 14.99326163  1304,6947.114,96.043,571.015,566.944,0.0
55756.0,STARLINK-5614,PAYLOAD,2023-05-07 06:00:00,14.99475167,0.0002884,70.0009,340.0276,277.5185,177.2929,-0.050203,-0.00581657,0.0,0 STARLINK-5614,1 55756U 23028R   23127.25001157 -.00581657  00000-0 -50203-1 0  9994,2 55756  70.0009 340.0276 0002884 277.5185 177.2929 14.99475167 10646,6946.654,96.034,570.522,566.515,0.0
55756.0,STARLINK-5614,PAYLOAD,2023-05-07 14:00:01,14.99081086,0.0002845,70.0009,339.1867,269.7221,183.7085,-0.077227,-0.00871299,0.0,0 STARLINK-5614,1 55756U 23028R   23127.58334491 -.00871299  00000-0 -77227-1 0  9999,2 55756  70.0009 339.1867 0002845 269.7221 183.7085 14.99081086 10695,6947.871,96.059,571.713,567.76,0.0
55756.0,STARLINK-5614,PAYLOAD,2023-05-07 22:00:00,14.98326321,0.0002816,70.001,338.3445,276.6183,174.83,0.00028819,3.347e-05,0.0,0 STARLINK-5614,1 55756U 23028R   23127.91667824  .00003347  00000-0  28819-3 0  9999,2 55756  70.0010 338.3445 0002816 276.6183 174.8300 14.98326321 10742,6950.204,96.107,574.026,570.112,0.0
55756.0,STARLINK-5614,PAYLOAD,2023-05-08 22:00:00,14.98325018,0.0002802,70.0011,335.8227,274.9712,168.9195,0.00020907,2.402e-05,0.0,0 STARLINK-5614,1 55756U 23028R   23128.91667824  .00002402  00000-0  20907-3 0  9991,2 55756  70.0011 335.8227 0002802 274.9712 168.9195 14.98325018  1307,6950.208,96.107,574.021,570.126,0.0
55756.0,STARLINK-5614,PAYLOAD,2023-05-09 06:00:00,14.98339082,0.0002798,70.0009,334.9821,272.1888,169.1791,-0.0029493,-0.00035116,0.0,0 STARLINK-5614,1 55756U 23028R   23129.25001157 -.00035116  00000-0 -29493-2 0  9998,2 55756  70.0009 334.9821 0002798 272.1888 169.1791 14.98339082 10943,6950.165,96.106,573.974,570.085,0.0
55756.0,STARLINK-5614,PAYLOAD,2023-05-09 14:00:01,14.98332115,0.0002858,70.0013,334.1415,266.5466,172.3025,0.0012322,0.00014641,0.0,0 STARLINK-5614,1 55756U 23028R   23129.58334491  .00014641  00000-0  12322-2 0  9995,2 55756  70.0013 334.1415 0002858 266.5466 172.3025 14.98332115  1301,6950.186,96.107,574.038,570.065,0.0
55756.0,STARLINK-5614,PAYLOAD,2023-05-10 14:00:01,14.98343333,0.0002988,70.0017,331.6199,266.3442,164.9522,0.00056305,6.634e-05,0.0,0 STARLINK-5614,1 55756U 23028R   23130.58334491  .00006634  00000-0  56305-3 0  9990,2 55756  70.0017 331.6199 0002988 266.3442 164.9522 14.98343333  1305,6950.152,96.106,574.093,569.94,0.0
55756.0,STARLINK-5614,PAYLOAD,2023-05-10 22:00:00,14.9833659,0.0002977,70.0016,330.7794,271.8252,156.9799,-0.0011193,-0.00013425,0.0,0 STARLINK-5614,1 55756U 23028R   23130.91667824 -.00013425  00000-0 -11193-2 0  9999,2 55756  70.0016 330.7794 0002977 271.8252 156.9799 14.98336590  1307,6950.173,96.107,574.107,569.968,0.0
55756.0,STARLINK-5614,PAYLOAD,2023-05-10 23:17:47,14.9833422,0.0002663,69.9997,330.6436,271.5845,88.5009,2.9059e-05,2.54e-06,0.0,0 STARLINK-5614,1 55756U 23028R   23130.97069278  .00000254  00000-0  29059-4 0  9990,2 55756  69.9997 330.6436 0002663 271.5845  88.5009 14.98334220 11203,6950.18,96.107,573.896,570.194,0.0
55756.0,STARLINK-5614,PAYLOAD,2023-05-11 20:07:32,14.98335783,0.0002708,69.9997,328.4563,268.4675,91.6174,6.3791e-05,6.68e-06,0.0,0 STARLINK-5614,1 55756U 23028R   23131.83856901  .00000668  00000-0  63791-4 0  9993,2 55756  69.9997 328.4563 0002708 268.4675  91.6174 14.98335783 11332,6950.175,96.107,573.922,570.158,0.0
55756.0,STARLINK-5614,PAYLOAD,2023-05-11 23:19:48,14.98337365,0.0002684,69.9998,328.1193,269.2887,90.7965,8.0954e-05,8.73e-06,0.0,0 STARLINK-5614,1 55756U 23028R   23131.97208705  .00000873  00000-0  80954-4 0  9999,2 55756  69.9998 328.1193 0002684 269.2887  90.7965 14.98337365 11354,6950.17,96.107,573.901,570.17,0.0
55756.0,STARLINK-5614,PAYLOAD,2023-05-12 18:33:25,14.98327399,0.0002437,70.0008,326.1023,255.1827,104.9063,-4.4933e-05,-6.29e-06,0.0,0 STARLINK-5614,1 55756U 23028R   23132.77321596 -.00000629  00000-0 -44933-4 0  9990,2 55756  70.0008 326.1023 0002437 255.1827 104.9063 14.98327399 11479,6950.201,96.107,573.76,570.372,0.0
55756.0,STARLINK-5614,PAYLOAD,2023-05-12 21:45:42,14.98327422,0.0002497,70.0003,325.7636,267.263,92.8243,-6.8325e-05,-9.08e-06,0.0,0 STARLINK-5614,1 55756U 23028R   23132.90673738 -.00000908  00000-0 -68325-4 0  9994,2 55756  70.0003 325.7636 0002497 267.2630  92.8243 14.98327422 11495,6950.201,96.107,573.801,570.33,0.0
55756.0,STARLINK-5614,PAYLOAD,2023-05-13 13:47:02,14.98335808,0.0002633,69.9998,324.0795,265.9188,94.167,-2.0966e-05,-3.43e-06,0.0,0 STARLINK-5614,1 55756U 23028R   23133.57433033 -.00000343  00000-0 -20966-4 0  9992,2 55756  69.9998 324.0795 0002633 265.9188  94.1670 14.98335808 11595,6950.175,96.107,573.87,570.21,0.0
55756.0,STARLINK-5614,PAYLOAD,2023-05-13 20:11:34,14.98334733,0.0002806,69.9994,323.406,269.0599,91.0238,-2.3384e-05,-3.72e-06,0.0,0 STARLINK-5614,1 55756U 23028R   23133.84137030 -.00000372  00000-0 -23384-4 0  9999,2 55756  69.9994 323.4060 0002806 269.0599  91.0238 14.98334733 11639,6950.178,96.107,573.993,570.093,0.0
55756.0,STARLINK-5614,PAYLOAD,2023-05-14 13:49:03,14.98326781,0.000279,69.9991,321.5551,267.7344,92.3496,3.7726e-05,3.57e-06,0.0,0 STARLINK-5614,1 55756U 23028R   23134.57573299  .00000357  00000-0  37726-4 0  9997,2 55756  69.9991 321.5551 0002790 267.7344  92.3496 14.98326781 11741,6950.203,96.107,574.007,570.129,0.0
55756.0,STARLINK-5614,PAYLOAD,2023-05-14 20:13:35,14.98326156,0.0002813,69.9993,320.881,268.9564,91.1273,2.9782e-05,2.62e-06,0.0,0 STARLINK-5614,1 55756U 23028R   23134.84277407  .00000262  00000-0  29782-4 0  9997,2 55756  69.9993 320.8810 0002813 268.9564  91.1273 14.98326156 11786,6950.205,96.107,574.025,570.115,0.0
55756.0,STARLINK-5614,PAYLOAD,2023-05-15 05:50:23,14.98328428,0.0003007,69.9989,319.8711,271.3477,88.7337,2.4291e-05,1.97e-06,0.0,0 STARLINK-5614,1 55756U 23028R   23135.24333293  .00000197  00000-0  24291-4 0  9995,2 55756  69.9989 319.8711 0003007 271.3477  88.7337 14.98328428 11840,6950.198,96.107,574.153,569.973,0.0
